OCEANSAT-2              
1 35931U 09051A   26165.84051519 -.00000090  00000+0 -35582-4 0  9996
2 35931  98.2324 152.9260 0015024 243.0930 116.8702 13.99664705879008
WORLDVIEW-2 (WV-2)      
1 35946U 09055A   26165.86745781  .00000108  00000+0  50310-4 0  9993
2 35946  98.4737 239.3489 0003570 216.0518 144.0429 14.37898821875312
SMOS                    
1 36036U 09059A   26165.75718154  .00000214  00000+0  82186-4 0  9994
2 36036  98.4424 353.1277 0001322  89.3907 270.7432 14.39771424873109
YAOGAN-7                
1 36110U 09069A   26165.65160639  .00000441  00000+0  68160-4 0  9994
2 36110  98.0076  51.5343 0025695  49.5498 310.7947 14.78007628889256
TANDEM-X                
1 36605U 10030A   26165.55699444  .00000494  00000+0  26723-4 0  9990
2 36605  97.4451 173.3020 0001853  84.5205 275.6241 15.19148396886241
CARTOSAT-2B             
1 36795U 10035A   26165.83590024  .00000788  00000+0  11466-3 0  9993
2 36795  97.9958 216.4006 0010984 191.4770 168.6192 14.78658916859504
YAOGAN-10               
1 36834U 10038A   26165.87032700  .00001195  00000+0  14524-3 0  9997
2 36834  97.8976 189.2928 0001712  86.7368  36.8513 14.85342829856865
COSMO-SKYMED 4          
1 37216U 10060A   26165.81084020  .00001038  00000+0  13699-3 0  9991
2 37216  97.8882 349.4454 0001448  84.1143 276.0235 14.82154130844217
RESOURCESAT-2           
1 37387U 11015A   26165.83676426  .00000063  00000+0  49127-4 0  9993
2 37387  98.7644 233.2947 0010161 263.0500  96.9521 14.21605926785843
HAIYANG-2A              
1 37781U 11043A   26165.85447164 -.00000254  00000+0 -22240-3 0  9999
2 37781  99.3388 168.5818 0006217  94.8028 265.3831 13.74458110746337
RASAT                   
1 37791U 11044D   26165.87441821  .00000666  00000+0  12406-3 0  9995
2 37791  98.0578 257.3064 0019964 196.3108 300.0161 14.68165172792842
SRMSAT                  
1 37841U 11058D   26165.48601053  .00000355  00000+0  48806-4 0  9997
2 37841  19.9719  75.8168 0011843 173.9008   0.9019 14.11575039757432
PLEIADES 1A             
1 38012U 11076F   26165.87516976  .00000195  00000+0  51750-4 0  9994
2 38012  98.1983 241.0088 0001629  96.9134  34.9538 14.58569354771655
ZIYUAN 1-02C (ZY 1-02C) 
1 38038U 11079A   26165.86251972  .00000317  00000+0  11857-3 0  9995
2 38038  98.4079 233.2193 0005638 324.9401 165.3238 14.38212799758878
ARIRANG-3 (KOMPSAT-3)   
1 38338U 12025B   26165.84292991  .00000368  00000+0  82332-4 0  9997
2 38338  98.1176 123.3433 0006596 115.2863 244.9023 14.62204324751005
EXACTVIEW-1 (ADS-1B)    
1 38709U 12039C   26165.85347289  .00000085  00000+0  56353-4 0  9996
2 38709  98.9775 283.1910 0011040 172.9617 187.1718 14.24983944722379
SPOT 6                  
1 38755U 12047A   26165.86538561  .00000205  00000+0  53898-4 0  9997
2 38755  98.2126 233.2012 0001491  91.7700 268.3670 14.58561463732715
PLEIADES 1B             
1 39019U 12068A   26165.81569786  .00000329  00000+0  80681-4 0  9999
2 39019  98.1953 240.8997 0001636  92.1007 268.0379 14.58559391720502
GOKTURK 2               
1 39030U 12073A   26165.84296308  .00000627  00000+0  99027-4 0  9993
2 39030  97.6819   3.3926 0001686  58.3980 301.7395 14.75541287724166
LANDSAT 8               
1 39084U 13008A   26165.82728277  .00000276  00000+0  71384-4 0  9990
2 39084  98.2302 235.9905 0001363  93.4416 266.6938 14.57093056697555
SARAL                   
1 39086U 13009A   26165.80633016  .00000084  00000+0  46991-4 0  9990
2 39086  98.5556 352.4037 0000824 324.2788  35.8340 14.32855419695261
GAOFEN-1                
1 39150U 13018A   26165.82668884  .00000612  00000+0  94915-4 0  9991
2 39150  97.9101 237.9423 0015717 274.9064  85.0351 14.76534267707898
VNREDSAT 1              
1 39160U 13021B   26165.83488128  .00000365  00000+0  76865-4 0  9997
2 39160  97.9086 219.3415 0001687  89.1415 270.9982 14.64854118699941
ARIRANG-5 (KOMPSAT-5)   
1 39227U 13042A   26165.83827188  .00001588  00000+0  11780-3 0  9999
2 39227  97.6206 352.5724 0005224 125.7932 234.3780 15.04486820703505
SKYSAT-A                
1 39418U 13066C   26165.41343851  .00003174  00000+0  18279-3 0  9994
2 39418  97.3817 214.8989 0020342 327.6661  32.3322 15.12962593688061
DUBAISAT-2              
1 39419U 13066D   26165.88423737  .00003897  00000+0  24218-3 0  9990
2 39419  97.4559 156.0878 0012637  48.2825 311.9483 15.10169065686047
GPM-CORE                
1 39574U 14009C   26165.68422602  .00010929  00000+0  23880-3 0  9996
2 39574  64.9722 316.5089 0011947 250.6643 109.3206 15.44522811697422
SENTINEL-1A             
1 39634U 14016A   26165.89892531 -.00000360  00000+0 -66661-4 0  9991
2 39634  98.1774 173.4645 0001439  82.2284 277.9079 14.59197950649680
KAZEOSAT 1              
1 39731U 14024A   26165.87077015  .00000150  00000+0  58773-4 0  9998
2 39731  98.3212 238.3753 0001390  73.0818 287.0524 14.42079090638226
ALOS-2                  
1 39766U 14029A   26165.90728027  .00001227  00000+0  17114-3 0  9990
2 39766  97.9219 263.1041 0001648  97.1472 262.9926 14.79464950651249
KAZEOSAT 2              
1 40010U 14033A   26165.87242361  .00000500  00000+0  63810-4 0  9995
2 40010  97.5408   5.6073 0008108 338.0424  22.0443 14.85468658648617
