OBJECT_NAME,OBJECT_ID,EPOCH,MEAN_MOTION,ECCENTRICITY,INCLINATION,RA_OF_ASC_NODE,ARG_OF_PERICENTER,MEAN_ANOMALY,EPHEMERIS_TYPE,CLASSIFICATION_TYPE,NORAD_CAT_ID,ELEMENT_SET_NO,REV_AT_EPOCH,BSTAR,MEAN_MOTION_DOT,MEAN_MOTION_DDOT
OCEANSAT-2,2009-051A,2026-06-14T20:10:20.512416,13.99664705,.0015024,98.2324,152.9260,243.0930,116.8702,0,U,35931,999,87900,-.35582E-4,-.9E-6,0
WORLDVIEW-2 (WV-2),2009-055A,2026-06-14T20:49:08.354784,14.37898821,.000357,98.4737,239.3489,216.0518,144.0429,0,U,35946,999,87531,.5031E-4,.108E-5,0
SMOS,2009-059A,2026-06-14T18:10:20.485056,14.39771424,.0001322,98.4424,353.1277,89.3907,270.7432,0,U,36036,999,87310,.82186E-4,.214E-5,0
YAOGAN-7,2009-069A,2026-06-14T15:38:18.792096,14.78007628,.0025695,98.0076,51.5343,49.5498,310.7947,0,U,36110,999,88925,.6816E-4,.441E-5,0
TANDEM-X,2010-030A,2026-06-14T13:22:04.319616,15.19148396,.0001853,97.4451,173.3020,84.5205,275.6241,0,U,36605,999,88624,.26723E-4,.494E-5,0
CARTOSAT-2B,2010-035A,2026-06-14T20:03:41.780736,14.78658916,.0010984,97.9958,216.4006,191.4770,168.6192,0,U,36795,999,85950,.11466E-3,.788E-5,0
YAOGAN-10,2010-038A,2026-06-14T20:53:16.252800,14.85342829,.0001712,97.8976,189.2928,86.7368,36.8513,0,U,36834,999,85686,.14524E-3,.1195E-4,0
COSMO-SKYMED 4,2010-060A,2026-06-14T19:27:36.593280,14.82154130,.0001448,97.8882,349.4454,84.1143,276.0235,0,U,37216,999,84421,.13699E-3,.1038E-4,0
RESOURCESAT-2,2011-015A,2026-06-14T20:04:56.432064,14.21605926,.0010161,98.7644,233.2947,263.0500,96.9521,0,U,37387,999,78584,.49127E-4,.63E-6,0
HAIYANG-2A,2011-043A,2026-06-14T20:30:26.349696,13.74458110,.0006217,99.3388,168.5818,94.8028,265.3831,0,U,37781,999,74633,-.2224E-3,-.254E-5,0
RASAT,2011-044D,2026-06-14T20:59:09.733344,14.68165172,.0019964,98.0578,257.3064,196.3108,300.0161,0,U,37791,999,79284,.12406E-3,.666E-5,0
SRMSAT,2011-058D,2026-06-14T11:39:51.309792,14.11575039,.00118434,19.9719,75.8168,173.9008,0.9019,0,U,37841,999,75743,.48805972E-4,.355E-5,0
PLEIADES 1A,2011-076F,2026-06-14T21:00:14.667264,14.58569354,.0001629,98.1983,241.0088,96.9134,34.9538,0,U,38012,999,77165,.5175E-4,.195E-5,0
ZIYUAN 1-02C (ZY 1-02C),2011-079A,2026-06-14T20:42:01.703808,14.38212799,.0005638,98.4079,233.2193,324.9401,165.3238,0,U,38038,999,75887,.11857E-3,.317E-5,0
ARIRANG-3 (KOMPSAT-3),2012-025B,2026-06-14T20:13:49.144224,14.62204324,.0006596,98.1176,123.3433,115.2863,244.9023,0,U,38338,999,75100,.82332E-4,.368E-5,0
EXACTVIEW-1 (ADS-1B),2012-039C,2026-06-14T20:29:00.057696,14.24983944,.001104,98.9775,283.1910,172.9617,187.1718,0,U,38709,999,72237,.56353E-4,.85E-6,0
SPOT 6,2012-047A,2026-06-14T20:46:09.316704,14.58561463,.0001491,98.2126,233.2012,91.7700,268.3670,0,U,38755,999,73271,.53898E-4,.205E-5,0
PLEIADES 1B,2012-068A,2026-06-14T19:34:36.295104,14.58559391,.0001636,98.1953,240.8997,92.1007,268.0379,0,U,39019,999,72050,.80681E-4,.329E-5,0
GOKTURK 2,2012-073A,2026-06-14T20:13:52.010112,14.75541287,.0001686,97.6819,3.3926,58.3980,301.7395,0,U,39030,999,72416,.99027E-4,.627E-5,0
LANDSAT 8,2013-008A,2026-06-14T19:51:17.231328,14.57093056,.0001363,98.2302,235.9905,93.4416,266.6938,0,U,39084,999,69755,.71384E-4,.276E-5,0
SARAL,2013-009A,2026-06-14T19:21:06.925824,14.32855419,.0000824,98.5556,352.4037,324.2788,35.8340,0,U,39086,999,69526,.46991E-4,.84E-6,0
GAOFEN-1,2013-018A,2026-06-14T19:50:25.915776,14.76534267,.0015717,97.9101,237.9423,274.9064,85.0351,0,U,39150,999,70789,.94915E-4,.612E-5,0
VNREDSAT 1,2013-021B,2026-06-14T20:02:13.742592,14.64854118,.0001687,97.9086,219.3415,89.1415,270.9982,0,U,39160,999,69994,.76865E-4,.365E-5,0
ARIRANG-5 (KOMPSAT-5),2013-042A,2026-06-14T20:07:06.690432,15.04486820,.0005224,97.6206,352.5724,125.7932,234.3780,0,U,39227,999,70350,.1178E-3,.1588E-4,0
SKYSAT-A,2013-066C,2026-06-14T09:55:21.087264,15.12962593,.00203426,97.3817,214.8989,327.6661,32.3322,0,U,39418,999,68806,.18278905E-3,.3174E-4,0
DUBAISAT-2,2013-066D,2026-06-14T21:13:18.108768,15.10169065,.0012637,97.4559,156.0878,48.2825,311.9483,0,U,39419,999,68604,.24218E-3,.3897E-4,0
GPM-CORE,2014-009C,2026-06-14T16:25:17.128128,15.44522811,.0011947,64.9722,316.5089,250.6643,109.3206,0,U,39574,999,69742,.2388E-3,.10929E-3,0
SENTINEL-1A,2014-016A,2026-06-14T21:34:27.146784,14.59197950,.0001439,98.1774,173.4645,82.2284,277.9079,0,U,39634,999,64968,-.66661E-4,-.36E-5,0
KAZEOSAT 1,2014-024A,2026-06-14T20:53:54.540960,14.42079090,.000139,98.3212,238.3753,73.0818,287.0524,0,U,39731,999,63822,.58773E-4,.15E-5,0
ALOS-2,2014-029A,2026-06-14T21:46:29.015328,14.79464950,.0001648,97.9219,263.1041,97.1472,262.9926,0,U,39766,999,65124,.17114E-3,.1227E-4,0
KAZEOSAT 2,2014-033A,2026-06-14T20:56:17.399904,14.85468658,.0008108,97.5408,5.6073,338.0424,22.0443,0,U,40010,999,64861,.6381E-4,.5E-5,0
